{"type":"FeatureCollection","features":[{"type":"Feature","properties":{"name":"Stockholms län","countyCode":"01"},"geometry":{"type":"Polygon","coordinates":[[[17.51820854,58.98303576],[17.5174004,58.98303406],[17.51629569,58.9829331],[17.51479647,58.98254517],[17.51377809,58.98230121],[17.51190351,58.98126505],[17.50307288,58.98412354],[17.50032409,58.98562758],[17.49048312,58.98677766],[17.48059368,58.98907843],[17.4757813,58.98734149],[17.46756092,58.98923329],[17.45520384,58.99210468],[17.4432893,58.99501951],[17.44671579,58.99048637],[17.44346096,58.98453826],[17.44174868,58.9837669],[17.44220541,58.98360971],[17.4392358,58.98125045],[17.42987963,58.98045748],[17.42425192,58.98223522],[17.41969856,58.98158205],[17.41685197,58.98221551],[17.41650065,58.9822995],[17.41230856,58.98322512],[17.40562327,58.98263543],[17.40561079,58.98248116],[17.39964333,58.98259085],[17.39395847,58.98223604],[17.39435763,58.9836055],[17.38994581,58.98385393],[17.3889986,58.98410047],[17.38808001,58.98401223],[17.38566668,58.9850193],[17.38451375,58.98504378],[17.38304381,58.98484862],[17.38083492,58.98402776],[17.38062118,58.98395651],[17.37517014,58.98236211],[17.37073373,58.99107745],[17.36531295,58.99576995],[17.36483539,59.00101147],[17.36046173,59.00731149],[17.3546692,59.00927145],[17.3524023,59.01609765],[17.35195015,59.01737129],[17.34533982,59.02299463],[17.34334352,59.02513694],[17.34468817,59.02668002],[17.34686275,59.02908662],[17.34025884,59.03087437],[17.33992538,59.03097515],[17.33977901,59.03105226],[17.33952236,59.03120896],[17.33926321,59.03136715],[17.33898058,59.03151588],[17.33873635,59.03158694],[17.33860142,59.03160833],[17.33841034,59.0316177],[17.33816343,59.03162593],[17.33781623,59.03165151],[17.33755039,59.0317049],[17.33725802,59.03179084],[17.33710973,59.03182495],[17.33698304,59.03186406],[17.33695402,59.03186845],[17.33689606,59.03188899],[17.3367878,59.03190738],[17.33661407,59.03192892],[17.33655556,59.03194552],[17.33652453,59.03195838],[17.33647497,59.03196512],[17.33632197,59.03197228],[17.33588498,59.03209585],[17.33558282,59.03211378],[17.33529701,59.03210806],[17.33509789,59.03209423],[17.33499234,59.03207215],[17.3346839,59.03194459],[17.33448476,59.03184991],[17.33425235,59.03178799],[17.33402089,59.03175291],[17.33386537,59.03177807],[17.33372866,59.03183892],[17.33369614,59.03197397],[17.33376156,59.03211867],[17.33394197,59.0322656],[17.33421543,59.03238813],[17.33439819,59.03250817],[17.33442752,59.03262279],[17.33436133,59.03270428],[17.3341637,59.0328036],[17.33365829,59.03303753],[17.3334673,59.03313312],[17.33329114,59.03333085],[17.3331676,59.03345263],[17.33297787,59.03373854],[17.33290686,59.03388057],[17.33284195,59.03406157],[17.3327994,59.03420569],[17.33266997,59.03443348],[17.33252241,59.03465063],[17.33231487,59.03492419],[17.33222739,59.034997],[17.33218348,59.03502985],[17.33210593,59.03517083],[17.33196198,59.03530537],[17.33174302,59.03547854],[17.33157531,59.0356295],[17.33150469,59.03568601],[17.33144174,59.03576035],[17.33133743,59.03592857],[17.33133788,59.0360201],[17.33138593,59.03616501],[17.33145302,59.0363492],[17.33153294,59.03642555],[17.33172127,59.0365939],[17.33188623,59.03678414],[17.33207893,59.03689151],[17.33215393,59.03701627],[17.33222059,59.03718978],[17.33225006,59.0374677],[17.33221877,59.03771231],[17.33226491,59.03781415],[17.33239598,59.03802808],[17.33256889,59.03832066],[17.33273999,59.03857367],[17.33285469,59.03881116],[17.3328391,59.03893522],[17.33275331,59.03904581],[17.33263686,59.03917285],[17.33243426,59.03932246],[17.3322135,59.03945245],[17.33218208,59.03953179],[17.332156,59.03965604],[17.33214332,59.03984651],[17.33214869,59.040053],[17.33211325,59.04020248],[17.33211318,59.04036048],[17.33212891,59.04056499],[17.33213361,59.04075533],[17.33209117,59.04090125],[17.33196803,59.04103559],[17.33179105,59.04121357],[17.33166634,59.04139276],[17.33160704,59.04155506],[17.33153341,59.04170316],[17.33137638,59.04185949],[17.33118725,59.04199808],[17.33107178,59.0420677],[17.33086737,59.04217602],[17.33055418,59.04234666],[17.3302256,59.04248326],[17.32998876,59.04256503],[17.32976773,59.04261069],[17.32942498,59.04266131],[17.32915215,59.04271472],[17.32889756,59.04279133],[17.3287132,59.04287962],[17.32832388,59.0431427],[17.3283196,59.04314676],[17.32817665,59.04328268],[17.32799238,59.04337456],[17.32781946,59.04344296],[17.32766302,59.04349149],[17.32735315,59.04357763],[17.32642944,59.04381096],[17.32619647,59.04390343],[17.32604323,59.04397167],[17.32589898,59.04403255],[17.32567133,59.04416984],[17.32553267,59.04426664],[17.32547436,59.04436964],[17.3254807,59.04451863],[17.32554032,59.04469038],[17.32560554,59.04490864],[17.32555302,59.04506552],[17.32546382,59.0452623],[17.32532735,59.04549371],[17.3251997,59.04568553],[17.32499248,59.04580817],[17.32462593,59.04595603],[17.3242886,59.04605334],[17.32365177,59.04623121],[17.32280875,59.04648147],[17.32220913,59.04663567],[17.3218765,59.04675606],[17.32187259,59.04675775],[17.32153745,59.04689839],[17.32121156,59.04702064],[17.32090153,59.04718401],[17.32071176,59.04731002],[17.32038372,59.04770527],[17.32036129,59.0477522],[17.32026018,59.04783063],[17.32013884,59.04800975],[17.31986931,59.04830919],[17.3193926,59.04889465],[17.31921317,59.0490996],[17.31921413,59.04910947],[17.31963374,59.05357339],[17.3201294,59.05921801],[17.32021641,59.06020908],[17.32033676,59.06196932],[17.32035961,59.06209476],[17.3205587,59.06242326],[17.32068073,59.06263288],[17.32182681,59.06422754],[17.32594818,59.07018485],[17.32536628,59.07081533],[17.32521815,59.07098641],[17.32516757,59.07104058],[17.32513128,59.07106988],[17.32065699,59.07591581],[17.3199871,59.07620068],[17.31932772,59.07648365],[17.31900343,59.07662957],[17.31881088,59.07675948],[17.31833393,59.07714248],[17.31773542,59.07760956],[17.31598354,59.07801749],[17.3148194,59.07839648],[17.3132287,59.07889751],[17.31207803,59.07926376],[17.31292358,59.0804813],[17.31342735,59.08117696],[17.31295019,59.0817959],[17.31273204,59.08204653],[17.31281437,59.08222408],[17.31334064,59.08219763],[17.31403338,59.082087],[17.31597971,59.08558503],[17.31606949,59.08674374],[17.31606343,59.08683538],[17.31628061,59.08685423],[17.31618924,59.08706182],[17.31614415,59.08721496],[17.31614379,59.08727784],[17.31625179,59.08742367],[17.31615216,59.08745545],[17.31603709,59.08775131],[17.3158852,59.08800283],[17.3157179,59.08815393],[17.31651025,59.08846],[17.31655134,59.08866594],[17.31709621,59.09103262],[17.31649733,59.0914979],[17.31608937,59.09230739],[17.31706812,59.0930851],[17.31744746,59.09336224],[17.31747933,59.0934462],[17.31777777,59.09495418],[17.31812868,59.0966141],[17.31837043,59.09781042],[17.31843292,59.10389417],[17.31852148,59.10663816],[17.31852149,59.11054872],[17.31862149,59.11356385],[17.3186857,59.1152112],[17.32190141,59.12401107],[17.3224564,59.12898111],[17.32186374,59.13716904],[17.32092855,59.1394656],[17.32068707,59.14011079],[17.31676841,59.14489854],[17.31580046,59.14608025],[17.31575165,59.14613681],[17.31276545,59.14824379],[17.31042338,59.14922815],[17.30857862,59.15001016],[17.30777414,59.15114793],[17.3075885,59.15141504],[17.30757562,59.15148712],[17.30764019,59.15238382],[17.30763136,59.15256739],[17.30753496,59.15264572],[17.30752937,59.15267627],[17.30760041,59.15277597],[17.30761574,59.15280444],[17.30758322,59.15285693],[17.30749059,59.15296762],[17.30744254,59.15306153],[17.30741406,59.15312473],[17.30738916,59.15318966],[17.30734379,59.15326565],[17.30724165,59.15332073],[17.30717389,59.15336828],[17.30708628,59.15343576],[17.3070191,59.15349408],[17.30701188,59.15356238],[17.30703057,59.15366445],[17.30703924,59.15377387],[17.30708827,59.15392588],[17.30709836,59.15399217],[17.30708119,59.15407133],[17.30702486,59.15413853],[17.30695088,59.15419868],[17.30683897,59.15427369],[17.30669686,59.15429876],[17.3065676,59.15430034],[17.30643814,59.15429482],[17.30628728,59.15428412],[17.30616385,59.15425874],[17.30604999,59.15421711],[17.30601978,59.15416896],[17.30602031,59.15410617],[17.3060762,59.15403008],[17.30612197,59.15388942],[17.30613604,59.1538157],[17.30614271,59.15373483],[17.3060756,59.15364404],[17.3060097,59.15358207],[17.30450297,59.15550915],[17.30372128,59.15695323],[17.3033219,59.15767627],[17.30170254,59.15996918],[17.30023363,59.16137152],[17.29715288,59.16434134],[17.28412595,59.16853087],[17.27696734,59.16956903],[17.27947408,59.17103862],[17.27258238,59.17474011],[17.27257436,59.17483896],[17.26865737,59.17536855],[17.26863497,59.17540299],[17.26860118,59.17547893],[17.26854098,59.17563968],[17.26850239,59.17581092],[17.26848887,59.17610559],[17.26846867,59.17629079],[17.26842707,59.17640998],[17.26835664,59.17651882],[17.26829354,59.17662932],[17.26825597,59.17675923],[17.26824159,59.17686897],[17.26816696,59.1769079],[17.26804333,59.17694572],[17.26786078,59.17699175],[17.26774584,59.17705825],[17.26761916,59.17715899],[17.26743503,59.17729657],[17.26733436,59.1774239],[17.26717023,59.17754317],[17.26710638,59.17764479],[17.26709581,59.17769877],[17.26709966,59.17776338],[17.26709483,59.17779939],[17.26573004,59.17836517],[17.2627915,59.1799795],[17.26193797,59.17980996],[17.2578679,59.1797869],[17.25720375,59.18020146],[17.25882337,59.18192792],[17.25903965,59.18197473],[17.26106562,59.18243798],[17.26159674,59.18225359],[17.26271727,59.18180834],[17.2632626,59.18162729],[17.26367065,59.1822384],[17.26617056,59.18203872],[17.26752344,59.18231268],[17.26895494,59.18260754],[17.26860049,59.18299384],[17.26835346,59.18324561],[17.26803574,59.18360252],[17.26775554,59.18388532],[17.26744821,59.18424034],[17.26729416,59.18440983],[17.26720152,59.18449749],[17.26710799,59.18462828],[17.26701296,59.18479314],[17.26689832,59.1849781],[17.26681982,59.1851266],[17.26681584,59.18523436],[17.26676716,59.18535368],[17.26673549,59.18552291],[17.2667073,59.18569217],[17.26670174,59.1858305],[17.26673883,59.18598075],[17.26678116,59.18633201],[17.26682259,59.18655215],[17.26682443,59.18669754],[17.26686,59.18682266],[17.26686111,59.18707046],[17.26686647,59.18727326],[17.26692935,59.18744453],[17.26693041,59.18763484],[17.26691468,59.18777873],[17.26689284,59.1879371],[17.26682497,59.18808721],[17.26673035,59.18820185],[17.26662699,59.18834359],[17.26647256,59.1885076],[17.26604682,59.1888717],[17.26589209,59.18897472],[17.26577957,59.18908069],[17.26571892,59.18917858],[17.26566098,59.18931952],[17.26556603,59.18959935],[17.26546921,59.18984867],[17.26540667,59.19002922],[17.26532855,59.19024057],[17.26531403,59.1904616],[17.26527449,59.19061669],[17.26525851,59.190757],[17.26527893,59.19086254],[17.26524156,59.19099603],[17.26521525,59.19125499],[17.26518984,59.19147082],[17.26515909,59.19165629],[17.26508756,59.19186026],[17.26499533,59.19207007],[17.26491237,59.19231735],[17.26482971,59.19251262],[17.26478605,59.19260122],[17.26354327,59.19187585],[17.26297428,59.19457826],[17.2627668,59.19548643],[17.26257053,59.19666028],[17.26061369,59.19701139],[17.25483445,59.19805758],[17.24808905,59.19929716],[17.24442387,59.20415158],[17.24949009,59.20427561],[17.24963057,59.20453815],[17.24966411,59.20461993],[17.25012336,59.2054596],[17.25151135,59.20809059],[17.247786,59.21206296],[17.24747709,59.21204477],[17.24712331,59.21204504],[17.2465211,59.21221326],[17.24591551,59.21247297],[17.24545879,59.21268978],[17.24520018,59.21287217],[17.24496623,59.21330913],[17.24482458,59.21369304],[17.24461786,59.21402561],[17.24429754,59.21424096],[17.2438627,59.21447911],[17.24367093,59.21458176],[17.2440077,59.21476654],[17.24438013,59.21496176],[17.24463393,59.21508644],[17.24499767,59.21541096],[17.24526153,59.21560733],[17.24559247,59.21581736],[17.24579952,59.21591204],[17.24611604,59.21611145],[17.24633787,59.21647704],[17.24646626,59.2166982],[17.24646308,59.21746305],[17.24649563,59.21832977],[17.24646291,59.21913978],[17.24648758,59.21922926],[17.24708715,59.21932677],[17.24890001,59.21957916],[17.25220835,59.22008838],[17.25238309,59.22017014],[17.25251939,59.22025176],[17.25314098,59.22054233],[17.25383875,59.2209778],[17.25430465,59.22119705],[17.25432642,59.22120512],[17.25448168,59.22128039],[17.2547631,59.22141284],[17.25556144,59.22205997],[17.25617338,59.22240476],[17.25687436,59.22267768],[17.257526,59.2229166],[17.25829743,59.2227004],[17.25890945,59.22253222],[17.26009162,59.22256369],[17.26029081,59.22254046],[17.260579,59.22247986],[17.26072955,59.222392],[17.26085474,59.22229004],[17.26108647,59.22231744],[17.26156619,59.22260047],[17.2616283,59.22267861],[17.26192792,59.22326647],[17.26284359,59.22493167],[17.26454508,59.22743502],[17.2718564,59.23452567],[17.27262569,59.23646669],[17.27351195,59.2407492],[17.27477506,59.24391289],[17.2747943,59.24398683],[17.27489061,59.24417781],[17.27486251,59.24456775],[17.27483542,59.24466675],[17.27481587,59.24555396],[17.28136712,59.2454475],[17.28603019,59.24607781],[17.28887593,59.24646016],[17.29211994,59.24690845],[17.29303563,59.24703503],[17.2921488,59.24803589],[17.29154039,59.24882444],[17.29102637,59.24945109],[17.29323099,59.24958551],[17.29378441,59.2501849],[17.29543795,59.25010499],[17.3018132,59.24982537],[17.30893121,59.2521266],[17.30388938,59.25661075],[17.31036771,59.26633416],[17.34156173,59.27359985],[17.34779045,59.27906072],[17.34861001,59.28511088],[17.34851352,59.29271949],[17.34847031,59.29824376],[17.34843293,59.30002503],[17.34832182,59.3057369],[17.34406428,59.31127824],[17.34982581,59.3176138],[17.35038165,59.31896005],[17.35058477,59.3199286],[17.34840292,59.32231764],[17.34619859,59.32615916],[17.34599454,59.33079331],[17.34662258,59.33166986],[17.34815011,59.33363823],[17.33504758,59.35174089],[17.33504691,59.3517418],[17.42561157,59.35134582],[17.41091653,59.36622082],[17.41301649,59.37576456],[17.41509533,59.38346526],[17.43300511,59.39582796],[17.42698006,59.41506837],[17.42945906,59.41949687],[17.42620793,59.42786733],[17.43571491,59.44174058],[17.45310873,59.44653109],[17.47973441,59.44370426],[17.4867503,59.44125277],[17.50434967,59.44053929],[17.50263836,59.4574809],[17.50242718,59.45926381],[17.50206615,59.45981541],[17.49823944,59.46447009],[17.49658462,59.46645071],[17.48179836,59.48542155],[17.46499754,59.50716478],[17.46481763,59.50739749],[17.47399492,59.50967258],[17.4831133,59.51193811],[17.48814888,59.51305802],[17.50973313,59.51563513],[17.51639292,59.51796415],[17.51928138,59.52169331],[17.52691817,59.53154877],[17.54115457,59.53744885],[17.54522153,59.54426815],[17.55592124,59.54285544],[17.56436398,59.54163971],[17.56619361,59.54004601],[17.56856374,59.54039948],[17.5700152,59.54218614],[17.57586733,59.54624717],[17.58107727,59.54974475],[17.58024642,59.55190814],[17.58020201,59.55717822],[17.57787506,59.55817201],[17.57649499,59.55884655],[17.57842485,59.55927419],[17.57844638,59.55927898],[17.55138977,59.57262724],[17.5512756,59.57268345],[17.55117482,59.57288563],[17.55056329,59.57363635],[17.55074928,59.57476001],[17.54941062,59.57521599],[17.54703263,59.57597988],[17.54437555,59.57879847],[17.54349475,59.5799788],[17.54269903,59.58050876],[17.54201643,59.58095506],[17.54050657,59.58195571],[17.53840669,59.58316442],[17.53581622,59.58476613],[17.53058319,59.58764165],[17.52796146,59.5890893],[17.52745155,59.590021],[17.52685402,59.59115603],[17.52562829,59.59348435],[17.52474111,59.5951991],[17.51979483,59.60135261],[17.52180393,59.60553532],[17.52032574,59.60859087],[17.51519227,59.60966941],[17.51356447,59.61155108],[17.51614219,59.62360123],[17.52708692,59.62778568],[17.52795721,59.62920766],[17.5300611,59.63034741],[17.53188682,59.63055575],[17.53961376,59.6352579],[17.54282017,59.63544543],[17.54313431,59.63527972],[17.54325482,59.63523076],[17.54343592,59.63518611],[17.54364644,59.63510496],[17.54393454,59.6350205],[17.54417853,59.63496205],[17.5444259,59.63489994],[17.54475422,59.63483087],[17.54498836,59.63478339],[17.54528632,59.63473646],[17.56044554,59.63772024],[17.57161499,59.63783686],[17.57231483,59.63808757],[17.57483302,59.638695],[17.57733067,59.63983436],[17.57797189,59.64019721],[17.58120524,59.64265125],[17.58492501,59.6448097],[17.58659121,59.64578017],[17.58715101,59.64613956],[17.58823633,59.64696005],[17.58856364,59.64734073],[17.5904532,59.64975623],[17.58850586,59.65019333],[17.58423484,59.65112051],[17.57886263,59.65328551],[17.57448305,59.65585799],[17.57357637,59.65814096],[17.5757482,59.66213264],[17.57943015,59.66403602],[17.58745884,59.66408201],[17.59365004,59.66413503],[17.59929595,59.66526729],[17.60215909,59.66694007],[17.60982841,59.67141964],[17.61706153,59.67399476],[17.62677519,59.67485313],[17.63142139,59.68176061],[17.63169404,59.6844604],[17.63026871,59.6871541],[17.62953625,59.69421187],[17.63620801,59.69362535],[17.63674166,59.69357358],[17.64642318,59.69341628],[17.65566532,59.69279711],[17.65944388,59.69395998],[17.67307787,59.69114584],[17.67835554,59.69247929],[17.69835932,59.68829571],[17.69848836,59.68817107],[17.6985407,59.6880658],[17.6987124,59.68784865],[17.6988458,59.68773461],[17.69890531,59.68763107],[17.69917442,59.68743358],[17.69936728,59.68726091],[17.69946008,59.68721957],[17.69946807,59.68713856],[17.6994353,59.68698823],[17.69943482,59.68688943],[17.6994444,59.68682815],[17.699448,59.68673645],[17.69947485,59.68666952],[17.69953532,59.68662336],[17.69957,59.68661196],[17.69967891,59.68655052],[17.69972606,59.6865155],[17.69978903,59.68645672],[17.69986585,59.68629893],[17.69992122,59.68623311],[17.69993026,59.68619619],[17.69993397,59.68616772],[17.70024825,59.68581623],[17.70181907,59.68609864],[17.70326001,59.68636188],[17.70343516,59.68611708],[17.70448881,59.68447783],[17.70797735,59.68424731],[17.70862808,59.68418968],[17.70896212,59.68419661],[17.71069545,59.68421632],[17.71104191,59.68426261],[17.71174568,59.68451664],[17.72037707,59.68395345],[17.7207828,59.68393372],[17.72229693,59.68405087],[17.72284925,59.6823033],[17.72504926,59.67435062],[17.72574487,59.66960705],[17.72625773,59.66824752],[17.72836231,59.66351998],[17.73267251,59.66489901],[17.73535195,59.66545667],[17.73780046,59.66569212],[17.73842752,59.66574945],[17.73884038,59.66577694],[17.73910476,59.66581696],[17.73920966,59.66585879],[17.7392278,59.66594653],[17.73919225,59.66602057],[17.73913856,59.66608763],[17.73919796,59.66614612],[17.7392821,59.66619907],[17.73943645,59.66623852],[17.73962474,59.66624347],[17.73997119,59.66621611],[17.74022518,59.66618449],[17.74046424,59.66613502],[17.74072728,59.66606727],[17.7408174,59.66602137],[17.74098316,59.66599967],[17.74119267,59.66600446],[17.74134044,59.66597756],[17.74173982,59.66571266],[17.74203049,59.6654741],[17.74228328,59.66534009],[17.74295154,59.66505761],[17.74317419,59.66496169],[17.7434046,59.66488177],[17.74352807,59.66486418],[17.74414633,59.66488385],[17.74449979,59.66485463],[17.7447286,59.66481606],[17.74504824,59.66474586],[17.74520432,59.66466866],[17.74562825,59.66447339],[17.74582865,59.66435798],[17.74601955,59.66426604],[17.74662891,59.66386396],[17.74707121,59.66353202],[17.74739971,59.66326787],[17.7475936,59.6629353],[17.7477277,59.66276505],[17.74788713,59.66268418],[17.74864261,59.6623737],[17.74913407,59.66218302],[17.74923485,59.66213878],[17.74987562,59.66180276],[17.75033821,59.66152626],[17.7505102,59.66140758],[17.75066289,59.66133395],[17.75092703,59.66121595],[17.75111731,59.66111323],[17.75137658,59.66088941],[17.75160794,59.66075206],[17.75173516,59.66066612],[17.7519623,59.66059164],[17.75223231,59.6605221],[17.75250453,59.66050274],[17.75268928,59.66050775],[17.75285242,59.66058301],[17.75331508,59.66084503],[17.75365089,59.66104576],[17.75453241,59.66138907],[17.75540209,59.66170371],[17.75627326,59.66204894],[17.75644447,59.66214559],[17.75772207,59.66314566],[17.75886798,59.66407114],[17.7595295,59.66452793],[17.75973747,59.66474373],[17.75977253,59.66486192],[17.75965278,59.66528269],[17.75957518,59.66569242],[17.7594317,59.66655305],[17.7594418,59.6667952],[17.75945623,59.66693153],[17.75949458,59.66717353],[17.75955191,59.66732216],[17.75972201,59.66757765],[17.75976715,59.66767425],[17.75983307,59.66775273],[17.7626123,59.67068257],[17.7642959,59.67297558],[17.76420271,59.67437782],[17.7639053,59.67466166],[17.7638095,59.67479151],[17.76376028,59.67493546],[17.76380816,59.67513253],[17.76395756,59.67541145],[17.76416406,59.67569365],[17.76721414,59.67838289],[17.76896721,59.67903848],[17.77192621,59.68510914],[17.77243009,59.68628371],[17.77254823,59.68630178],[17.77317046,59.6861837],[17.77521903,59.68735075],[17.77759768,59.69021315],[17.777917,59.69014405],[17.77834475,59.69062816],[17.78170985,59.68993683],[17.78179708,59.68969702],[17.78183788,59.68942397],[17.78186939,59.68848439],[17.78184985,59.68825071],[17.78179753,59.68799455],[17.78178286,59.68784951],[17.78181896,59.68775658],[17.78189045,59.68769092],[17.78206918,59.68758086],[17.78352193,59.68685826],[17.78373413,59.68676491],[17.78387923,59.68671763],[17.78425111,59.68660428],[17.78547395,59.68623552],[17.78559729,59.68612574],[17.78580591,59.68617278],[17.78591668,59.68624849],[17.78815749,59.68793677],[17.79604412,59.68640804],[17.79622091,59.68639304],[17.79641906,59.68637948],[17.79671554,59.68634477],[17.79707678,59.68626071],[17.79776902,59.68606242],[17.79781243,59.68594696],[17.79951293,59.68343331],[17.79990404,59.68301254],[17.80176805,59.68310686],[17.80235523,59.68316555],[17.80265337,59.6831634],[17.80301474,59.68314292],[17.80328704,59.68310683],[17.80413572,59.6829985],[17.80557641,59.68324131],[17.81265301,59.68087566],[17.81601219,59.67797827],[17.82029921,59.67883001],[17.82248146,59.6793305],[17.82351878,59.6795156],[17.82503039,59.67977751],[17.82525248,59.67981387],[17.8254775,59.6800363],[17.82558346,59.68014101],[17.82583983,59.68032153],[17.82779337,59.68201004],[17.82795887,59.68196578],[17.8285139,59.68176974],[17.82902792,59.68162777],[17.82937328,59.68154809],[17.8298281,59.68144602],[17.83024447,59.68136401],[17.83127011,59.68112142],[17.83194275,59.6809478],[17.83293213,59.68068209],[17.83254349,59.68207049],[17.83295491,59.68267049],[17.83427332,59.68345589],[17.83474759,59.68442446],[17.83656875,59.68830035],[17.83612319,59.68909305],[17.83480006,59.68918741],[17.83348965,59.68912904],[17.83271885,59.68919213],[17.83256964,59.68989084],[17.83279072,59.68990735],[17.83299887,59.6900067],[17.83325482,59.69013763],[17.8337424,59.69028143],[17.83433331,59.69087431],[17.8344155,59.69094674],[17.83458717,59.69103223],[17.83545197,59.69131421],[17.83569391,59.69144724],[17.83653602,59.69176905],[17.83658989,59.69196929],[17.83657294,59.6921742],[17.84179355,59.69366796],[17.8475914,59.69632957],[17.84894924,59.69709574],[17.85064558,59.6977701],[17.85514689,59.69806945],[17.85929492,59.69854138],[17.86277618,59.69894086],[17.86427722,59.69910268],[17.86519944,59.69910428],[17.86729954,59.69946193],[17.86766074,59.69955429],[17.87283793,59.70121902],[17.89193213,59.70746408],[17.89398576,59.70813137],[17.89475606,59.71058187],[17.90183514,59.70959598],[17.90411937,59.71203612],[17.90983456,59.70967845],[17.91007288,59.70970066],[17.91858316,59.71049516],[17.92954689,59.71200499],[17.93750333,59.71352529],[17.93822649,59.71368707],[17.93822665,59.71368716],[17.94277276,59.71332611],[17.94655971,59.71106187],[17.94669735,59.71347314],[17.95408285,59.71863343],[17.96018567,59.71945358],[17.96035388,59.71941987],[17.96280148,59.71988641],[17.96345336,59.72039167],[17.96825981,59.72259035],[17.9686437,59.72276368],[17.97552456,59.72199822],[17.97901874,59.72484048],[17.97916834,59.72497849],[17.98305063,59.72861383],[17.98392681,59.72921991],[17.98403301,59.72909612],[17.98396298,59.72882245],[17.9834911,59.72848847],[17.98449847,59.72821429],[17.98493205,59.72809078],[17.98505345,59.72802559],[17.98506072,59.72797718],[17.98511642,59.72787287],[17.98514252,59.7277624],[17.98525796,59.72758765],[17.98581657,59.72748259],[17.98777626,59.72711916],[17.9880161,59.72711199],[17.98810561,59.72722378],[17.98854445,59.72784805],[17.98855968,59.72809745],[17.98823665,59.72927171],[17.9874594,59.72929812],[17.98672779,59.72931306],[17.9845099,59.72927555],[17.98418146,59.7292947],[17.99079286,59.73123638],[17.99162621,59.73009199],[17.99775266,59.72879519],[17.99903067,59.72864238],[17.99958122,59.72926954],[18.00153107,59.73050175],[18.00233587,59.73069213],[18.00326341,59.73189542],[18.00119967,59.73217009],[18.00212371,59.73418335],[17.99898658,59.73441551],[18.00045371,59.73531218],[18.00092388,59.73694467],[18.00188815,59.737005],[18.00399757,59.73683206],[18.00381038,59.73645057],[18.00529969,59.73620105],[18.00595373,59.73752162],[18.00599801,59.73829861],[18.01034327,59.73803851],[18.01109735,59.73993945],[18.01210585,59.74106051],[18.01781898,59.74030808],[18.01772647,59.74048018],[18.01773078,59.74060765],[18.017787,59.74099824],[18.01249698,59.7415178],[18.01267488,59.74180776],[18.01286017,59.74261664],[18.01757795,59.74250479],[18.01779157,59.74158909],[18.01822798,59.74174203],[18.01855095,59.74184475],[18.01883957,59.74190846],[18.0192376,59.74195968],[18.01964547,59.7419963],[18.02006904,59.74200039],[18.02049675,59.74195596],[18.02093809,59.74184303],[18.02140102,59.74173517],[18.02034641,59.74532741],[18.02184638,59.74495896],[18.02485713,59.74439597],[18.02777056,59.74038467],[18.02814835,59.74029672],[18.03372987,59.73892673],[18.04035248,59.7376392],[18.0434949,59.73390647],[18.04611996,59.73685793],[18.05175431,59.73861364],[18.05214394,59.74072527],[18.05131097,59.74248646],[18.05112618,59.7425399],[18.05088029,59.74268963],[18.05070882,59.74283439],[18.05063321,59.74297756],[18.05062448,59.74310875],[18.05068324,59.74329263],[18.05088619,59.74361054],[18.05266136,59.74330523],[18.05329137,59.74331412],[18.05354345,59.74330799],[18.05399812,59.7433002],[18.05582072,59.74322203],[18.05763329,59.74315306],[18.05789336,59.74310909],[18.05846477,59.74298609],[18.05869024,59.74295703],[18.05887114,59.74289648],[18.06095196,59.74222674],[18.0614128,59.74210207],[18.06256031,59.74187757],[18.0632475,59.74189083],[18.06366084,59.74190158],[18.06464218,59.74195288],[18.06505236,59.74197089],[18.06532721,59.74198585],[18.06580154,59.74205662],[18.0668716,59.74225893],[18.06704555,59.74225406],[18.06741283,59.74221718],[18.06772376,59.74218844],[18.06908827,59.74201756],[18.06964843,59.74199171],[18.07076559,59.74194897],[18.07086795,59.74079813],[18.07175125,59.74066435],[18.07196322,59.74059246],[18.0722806,59.74045045],[18.0729606,59.74030579],[18.07309474,59.74029268],[18.07398675,59.74028438],[18.07469556,59.74025044],[18.07506143,59.74019201],[18.07545984,59.74009175],[18.07579818,59.73999426],[18.07603475,59.73992016],[18.07635909,59.73993071],[18.07714756,59.74001924],[18.07729159,59.73994138],[18.0777479,59.73985621],[18.07794135,59.73982409],[18.07842551,59.73978156],[18.07889243,59.73974474],[18.07924377,59.73978708],[18.07964813,59.73982494],[18.07994243,59.73986466],[18.08045517,59.73982164],[18.08110365,59.7397385],[18.08141351,59.73969538],[18.08165964,59.73965519],[18.08203045,59.73956617],[18.08227555,59.73951163],[18.08244955,59.73945652],[18.0830886,59.7391851],[18.08373977,59.73888285],[18.08444838,59.73869272],[18.08469364,59.73863997],[18.08516741,59.73855669],[18.08514935,59.73870787],[18.085196,59.73886678],[18.08574629,59.74008882],[18.08591875,59.74016661],[18.08608943,59.7402696],[18.08626868,59.74039395],[18.08640476,59.74051006],[18.08654624,59.740653],[18.08675435,59.74088637],[18.0869238,59.74112397],[18.08721226,59.74154079],[18.08722482,59.74161965],[18.08728102,59.74176405],[18.08730491,59.74190364],[18.08766939,59.74234078],[18.08800518,59.7426706],[18.08803192,59.74280123],[18.0881169,59.74294882],[18.08813574,59.74322131],[18.08817542,59.74353662],[18.08822761,59.74367573],[18.08869509,59.74415949],[18.08894467,59.74437419],[18.08899729,59.74440825],[18.08918114,59.74455495],[18.08998391,59.74525911],[18.09021312,59.74548668],[18.09048815,59.74627369],[18.09058248,59.74645709],[18.09068022,59.74696033],[18.09079349,59.74724228],[18.09093977,59.74744287],[18.09111898,59.74763918],[18.09119445,59.74771862],[18.09117228,59.74777269],[18.09095415,59.75007176],[18.09363117,59.7516407],[18.10776854,59.75776765],[18.10887963,59.75910714],[18.108365,59.7609063],[18.10750431,59.76116745],[18.10479005,59.76229969],[18.10435931,59.76698932],[18.10700528,59.76922485],[18.10752603,59.76966632],[18.10792383,59.77000676],[18.10810835,59.77015827],[18.10952904,59.77222715],[18.11008031,59.7730208],[18.11011368,59.77319457],[18.11032259,59.77435426],[18.1104307,59.77500557],[18.11045851,59.77515585],[18.11072996,59.77649122],[18.11374817,59.77853705],[18.11693775,59.7824323],[18.11679098,59.78631789],[18.11682612,59.78662504],[18.11686805,59.78722536],[18.11683089,59.7884225],[18.11568015,59.78940392],[18.11555175,59.78949313],[18.11522658,59.7905378],[18.11507126,59.7912286],[18.11811254,59.79380451],[18.11960927,59.79585415],[18.1179373,59.79720454],[18.11962576,59.80480346],[18.12171846,59.80714027],[18.12450646,59.81048017],[18.12520914,59.8113026],[18.12573656,59.8120221],[18.12593333,59.81234157],[18.12719733,59.81399877],[18.13068754,59.81907953],[18.14343532,59.82103271],[18.14813039,59.8217474],[18.15296611,59.82251092],[18.1560009,59.82319137],[18.16595234,59.82530635],[18.17491373,59.82727191],[18.17767013,59.82780469],[18.18095396,59.82842195],[18.18312289,59.82883505],[18.19770085,59.83154297],[18.19977597,59.83097912],[18.20131054,59.83060557],[18.20424127,59.82981749],[18.20560021,59.82943244],[18.20779026,59.82926709],[18.20956337,59.82910856],[18.21144956,59.82893385],[18.21240839,59.82885167],[18.2145334,59.82865967],[18.21967632,59.82818111],[18.22891659,59.83074862],[18.23465049,59.83245974],[18.2375191,59.83331566],[18.241612,59.83287207],[18.24506185,59.83309877],[18.24871327,59.83332677],[18.24789855,59.83485634],[18.25103006,59.83535292],[18.25406393,59.83566127],[18.2574237,59.83511161],[18.25833965,59.83545882],[18.25933792,59.83582708],[18.25957671,59.8359173],[18.26100703,59.83873059],[18.26267211,59.84226348],[18.26445827,59.84592946],[18.26658219,59.84709329],[18.26684028,59.84722309],[18.26735499,59.84735497],[18.26783692,59.84739304],[18.26817361,59.84740373],[18.26847755,59.84740785],[18.26876463,59.84742318],[18.26907341,59.84741964],[18.27018529,59.84815402],[18.27015625,59.84893067],[18.2734129,59.85058574],[18.28430816,59.85206743],[18.29802009,59.85392438],[18.3035432,59.85488324],[18.30774364,59.85558905],[18.31407561,59.85660199],[18.31214031,59.85857021],[18.31712797,59.85938188],[18.31732174,59.85858828],[18.31910458,59.85974688],[18.32744117,59.86102731],[18.33350726,59.86243153],[18.33730539,59.86342165],[18.34468877,59.86316221],[18.35388594,59.86245683],[18.36473866,59.86451341],[18.36473911,59.86451349],[18.36313566,59.87272796],[18.38143433,59.87862485],[18.38308959,59.87962201],[18.38349573,59.87970439],[18.38380548,59.87978853],[18.38422026,59.87989054],[18.38446942,59.87997758],[18.38585019,59.88058821],[18.38600787,59.88069315],[18.38625433,59.88106779],[18.38645634,59.88100715],[18.38645193,59.88154163],[18.39028015,59.88371854],[18.39267147,59.88984195],[18.39558985,59.89070713],[18.4032131,59.89287508],[18.40450474,59.89438943],[18.40457955,59.8948764],[18.40458696,59.89573494],[18.40421606,59.89785819],[18.40406869,59.89862567],[18.40388559,59.89923018],[18.39826524,59.90677423],[18.39804546,59.9071226],[18.39760243,59.91022061],[18.39437148,59.91289891],[18.39412992,59.91478506],[18.39377831,59.91923111],[18.39139733,59.9203758],[18.39048462,59.92092898],[18.38729927,59.92280359],[18.3846143,59.92542669],[18.38344411,59.92635447],[18.38150242,59.92787621],[18.38134744,59.92802153],[18.37804339,59.93096676],[18.37782135,59.93253401],[18.37715491,59.93639761],[18.38075764,59.93909031],[18.38217895,59.94074129],[18.38338686,59.9439335],[18.38389086,59.94567548],[18.38877807,59.95002911],[18.39028338,59.95361437],[18.39028361,59.95361517],[18.39490209,59.95548593],[18.40070932,59.95633929],[18.40335223,59.95687535],[18.42337414,59.95632592],[18.42929047,59.96499466],[18.42928834,59.96530122],[18.42909765,59.96658967],[18.42864109,59.96995484],[18.42803093,59.97414969],[18.42759872,59.97841223],[18.42742914,59.98048321],[18.42729727,59.98139678],[18.4272027,59.98153896],[18.42717227,59.98167795],[18.42721721,59.9818564],[18.4285918,59.98204639],[18.42862752,59.98225572],[18.42959774,59.98275058],[18.4297001,59.98273228],[18.43839855,59.98702283],[18.43855423,59.98699793],[18.43870854,59.98695698],[18.43877016,59.98696642],[18.43896767,59.98705382],[18.4396234,59.9872194],[18.43982934,59.98727972],[18.4398733,59.98733266],[18.43987606,59.98736494],[18.43986119,59.98740118],[18.43983006,59.98749877],[18.43983853,59.98755605],[18.43988644,59.98761429],[18.43989646,59.98764817],[18.43989531,59.98767695],[18.43990125,59.9877184],[18.44500763,59.99026445],[18.44605895,59.98985825],[18.44673873,59.99021708],[18.44752944,59.99057551],[18.44796703,59.99095504],[18.44827853,59.99109103],[18.44893427,59.99155794],[18.44865301,59.99158308],[18.4483878,59.99191143],[18.4505074,59.99310114],[18.451245,59.99421493],[18.45877064,59.99498316],[18.45964737,59.99365527],[18.46216265,59.99368777],[18.47116922,59.99948246],[18.47278678,60.00227991],[18.47282117,60.00332808],[18.47333679,60.00427032],[18.47335831,60.00429769],[18.47113107,60.00457834],[18.4679157,60.00718229],[18.46640415,60.00748448],[18.46472756,60.00741799],[18.46258385,60.00803415],[18.46203777,60.0087632],[18.46002905,60.00950238],[18.45833533,60.00940023],[18.45485699,60.00983171],[18.45022111,60.01134334],[18.44892834,60.0119753],[18.44855454,60.0133153],[18.44846741,60.01576362],[18.44422853,60.01764635],[18.44113738,60.01827303],[18.43642291,60.01869346],[18.43170111,60.02070362],[18.41774614,60.02530088],[18.41710351,60.02558061],[18.41573086,60.02682809],[18.41455562,60.02722923],[18.41364523,60.02752665],[18.40892234,60.02969762],[18.40754498,60.03041688],[18.40703325,60.03081457],[18.40688122,60.03098625],[18.40658919,60.03133001],[18.40643085,60.03167761],[18.40623037,60.03189376],[18.40600282,60.03200098],[18.40573296,60.03203544],[18.40512473,60.03201438],[18.40485643,60.03206685],[18.40461143,60.03213849],[18.40430514,60.03229231],[18.40371829,60.03256523],[18.40336712,60.03282408],[18.40276669,60.03335513],[18.40252586,60.03351337],[18.40232326,60.03371501],[18.40222946,60.03384269],[18.40210791,60.03393675],[18.40180967,60.03415469],[18.40166498,60.0342312],[18.40152005,60.03430241],[18.4013604,60.03437032],[18.40109961,60.03447435],[18.40098671,60.03449999],[18.40088731,60.0345128],[18.40074829,60.03452635],[18.40055107,60.03452855],[18.40017258,60.03450937],[18.3997845,60.03450642],[18.39965332,60.03452705],[18.39933181,60.03459104],[18.39921434,60.03460242],[18.39867594,60.0345594],[18.39853378,60.03457843],[18.39837174,60.03461584],[18.39820407,60.03467497],[18.39811784,60.03471798],[18.3981145,60.0347647],[18.39810392,60.03481161],[18.39809457,60.03496271],[18.39803999,60.03508596],[18.39799246,60.03511917],[18.39793022,60.03514916],[18.39782497,60.03518009],[18.3977297,60.03519997],[18.39757925,60.03524787],[18.39738545,60.03529491],[18.39718631,60.03540669],[18.39698701,60.0355616],[18.39685347,60.0356415],[18.39679906,60.03567857],[18.39653826,60.03573946],[18.39622653,60.0357907],[18.39597021,60.03581742],[18.39585572,60.03582333],[18.39566974,60.03583252],[18.3953364,60.0358392],[18.39517532,60.03584433],[18.39504709,60.03585769],[18.39496008,60.03589174],[18.39491965,60.03592494],[18.39490569,60.03597364],[18.39492419,60.03602537],[18.39498764,60.03609949],[18.39517131,60.03628256],[18.39535347,60.03649262],[18.39535311,60.03653387],[18.39531305,60.03657067],[18.39527257,60.03660199],[18.39521054,60.03663557],[18.3951347,60.03667301],[18.39498153,60.03673356],[18.39482006,60.03677814],[18.39459853,60.03683649],[18.39453233,60.0368612],[18.39444575,60.03694555],[18.39436935,60.03706558],[18.39428118,60.0371302],[18.39421479,60.03719624],[18.39401076,60.03729377],[18.39390408,60.03734979],[18.39378472,60.03742942],[18.39373608,60.0374463],[18.39342643,60.03762174],[18.39308066,60.03769937],[18.3928002,60.03774512],[18.39264095,60.03775083],[18.39253083,60.03776606],[18.39244271,60.03781819],[18.39243242,60.03791424],[18.39251179,60.0381982],[18.39265994,60.03842199],[18.39265468,60.03844576],[18.39262029,60.03848016],[18.39247415,60.03858194],[18.39236026,60.03863986],[18.39211965,60.03877228],[18.39205561,60.03882379],[18.39193678,60.03890879],[18.39185942,60.03901815],[18.39175415,60.03913704],[18.39160762,60.03927828],[18.39153908,60.03931912],[18.39142357,60.0393556],[18.39125169,60.03940575],[18.39116193,60.03945065],[18.39109712,60.03949329],[18.3910117,60.03959198],[18.39092683,60.03969605],[18.3908406,60.03978399],[18.39077328,60.03984107],[18.39067386,60.0398987],[18.39059234,60.03995605],[18.389984,60.04024851],[18.38978581,60.0403297],[18.38971942,60.04035261],[18.38961666,60.04036899],[18.38933436,60.04038549],[18.38924462,60.04038726],[18.38915935,60.04039798],[18.38906761,60.04041777],[18.38897027,60.04043365],[18.38889202,60.04056766],[18.38890905,60.04058205],[18.3889475,60.04073309],[18.38885551,60.04085441],[18.38847539,60.04110462],[18.38844779,60.0412313],[18.38848089,60.04126944],[18.39117407,60.04170959],[18.3916618,60.04174873],[18.39321482,60.04213204],[18.4113423,60.04703384],[18.41246845,60.04733514],[18.43124075,60.05642777],[18.44479097,60.05860927],[18.44764581,60.06747889],[18.45063361,60.07685411],[18.45081403,60.07720369],[18.45227309,60.07736749],[18.45340291,60.07749171],[18.45792589,60.07907448],[18.46294085,60.08084469],[18.46727643,60.08450514],[18.46980206,60.08663988],[18.47571471,60.09223065],[18.48164829,60.09610034],[18.48651017,60.10041291],[18.49198006,60.10388241],[18.49268225,60.1072893],[18.49452455,60.11763753],[18.49289141,60.11771662],[18.4922511,60.1194409],[18.49501859,60.12002339],[18.495642,60.12306483],[18.49585511,60.12423426],[18.49638269,60.12573099],[18.49682526,60.12730796],[18.49634826,60.12871632],[18.49605872,60.12953313],[18.49621775,60.13238458],[18.49580531,60.13317068],[18.49490211,60.13475706],[18.49425935,60.1359969],[18.49329082,60.13771394],[18.4934166,60.13825219],[18.49447754,60.13921484],[18.49510833,60.13928193],[18.49589812,60.13934337],[18.49628673,60.13938414],[18.49672523,60.13942036],[18.4972541,60.13945822],[18.49751597,60.13949075],[18.49780955,60.13951543],[18.49804598,60.13954485],[18.4989302,60.13961519],[18.4991877,60.13963875],[18.49954964,60.13966207],[18.49962193,60.13984571],[18.50002954,60.13994347],[18.50034194,60.14002354],[18.50043434,60.14005398],[18.50052418,60.14009528],[18.50075846,60.14023438],[18.50092283,60.14035322],[18.50109447,60.14047196],[18.50123262,60.14062367],[18.50128316,60.14071605],[18.50134013,60.14079757],[18.50138984,60.1408792],[18.50140012,60.14100661],[18.50139526,60.14112706],[18.50133432,60.14135466],[18.50131917,60.14143576],[18.50130547,60.14148994],[18.50145197,60.14165589],[18.50150187,60.14173931],[18.50153471,60.14183567],[18.50154787,60.14190909],[18.50159649,60.14197636],[18.50167786,60.14204834],[18.50170276,60.142091],[18.50173164,60.1422269],[18.50172141,60.14245892],[18.50172067,60.14258465],[18.50173782,60.14266336],[18.50176998,60.14270582],[18.50191661,60.14282684],[18.50203867,60.14291247],[18.50212566,60.14296463],[18.50222353,60.14301838],[18.50234766,60.14312903],[18.5024372,60.14321346],[18.50253297,60.14328524],[18.50273719,60.14340689],[18.50285272,60.14345487],[18.50300015,60.14349679],[18.50336471,60.14359731],[18.50368025,60.14367009],[18.50397512,60.14375394],[18.504059,60.14376843],[18.50416925,60.14375006],[18.50449804,60.14371835],[18.50466231,60.1437007],[18.50533844,60.14364406],[18.50550296,60.14367331],[18.50568572,60.14374691],[18.50602423,60.14372698],[18.50617749,60.14370773],[18.50625397,60.14371694],[18.50631153,60.14376061],[18.50635385,60.14383694],[18.50634637,60.14392152],[18.50629944,60.14396374],[18.50622755,60.14401012],[18.50619539,60.14405563],[18.50612206,60.14412901],[18.50606824,60.14421805],[18.50595193,60.14433714],[18.50591336,60.1443936],[18.50589543,60.14448196],[18.50588418,60.14456474],[18.50592522,60.14466807],[18.50600508,60.14476336],[18.50609786,60.14484051],[18.50621653,60.14488293],[18.50640295,60.1449169],[18.50651736,60.14494864],[18.50668835,60.14497026],[18.50686248,60.14502962],[18.50699448,60.14510232],[18.50713684,60.14516765],[18.50723277,60.1451962],[18.50733555,60.14521917],[18.50751657,60.14523171],[18.50779449,60.14523855],[18.50828027,60.14523223],[18.50837873,60.14524822],[18.50846522,60.1452913],[18.50862828,60.14534727],[18.50872902,60.14534694],[18.50881846,60.14533971],[18.50902818,60.14530495],[18.50925127,60.14530218],[18.50936972,60.14529796],[18.50952714,60.14532883],[18.50964493,60.14535877],[18.50978653,60.14541692],[18.50995087,60.14548894],[18.51002553,60.14556469],[18.51004241,60.14563793],[18.51010121,60.14573907],[18.51010813,60.14578022],[18.51020426,60.14581056],[18.51030728,60.14583721],[18.51041068,60.14586745],[18.51062085,60.1458829],[18.51089318,60.14586651],[18.51111481,60.14584589],[18.51161267,60.14576744],[18.51215017,60.14569001],[18.51248839,60.14568669],[18.51265185,60.14570311],[18.51271523,60.14572874],[18.51276967,60.14577789],[18.51277137,60.14584254],[18.51273133,60.14592412],[18.51259211,60.14602755],[18.51212597,60.14653262],[18.51161,60.15487241],[18.51103582,60.15586089],[18.51421405,60.16067064],[18.52678239,60.16110347],[18.59167638,60.16330593],[18.59309056,60.16334995],[18.5931677,60.16335235],[18.59498934,60.16321248],[18.59719297,60.16303975],[18.61450154,60.16223743],[18.64034232,60.16103964],[18.6768,60.15509021],[18.67702436,60.16700322],[18.68753103,60.16570712],[18.69309274,60.16567499],[18.6929866,60.17609698],[18.68169109,60.18167358],[18.67358099,60.18842118],[18.67273196,60.19462431],[18.6905143,60.19971669],[18.69599863,60.20071396],[18.69605873,60.20111408],[18.69664757,60.20687479],[18.69317555,60.21438927],[18.69194893,60.21604248],[18.68285927,60.22556785],[18.67859536,60.23126538],[18.68360868,60.23932951],[18.69421243,60.24176087],[18.71819193,60.24725947],[18.78605203,60.25842611],[18.81280739,60.26281229],[18.87783637,60.27346204],[18.9058534,60.27803623],[19.13118757,60.30066387],[19.13123278,60.30052754],[19.13213735,60.30071205],[19.10269999,60.23525004],[19.08320003,60.19168333],[19.18114146,60.12441885],[19.27868266,60.05708023],[19.37582697,59.98967001],[19.49187925,59.9086831],[19.57076984,59.85334311],[19.60736791,59.82759296],[19.65828339,59.79168331],[19.6971185,59.76481463],[19.7901501,59.70022187],[19.81324829,59.6841366],[19.87110391,59.64375932],[19.92881968,59.60335642],[19.9406472,59.59506394],[19.98639755,59.56292697],[20.0083834,59.54745863],[19.95326812,59.47079706],[19.90110147,59.39789204],[19.9001821,59.39390275],[19.89820505,59.38701333],[19.89575845,59.38016235],[19.89284382,59.37335943],[19.88946982,59.3666124],[19.88563599,59.35993034],[19.88135068,59.35331911],[19.8766174,59.34678932],[19.87144248,59.340347],[19.86583246,59.33399994],[19.8597943,59.32775774],[19.85333614,59.3216264],[19.84646592,59.3156126],[19.83919229,59.30972602],[19.83152319,59.3039717],[19.82346865,59.29835712],[19.81503844,59.29288921],[19.80624229,59.28757474],[19.79709191,59.28242023],[19.78759848,59.27743075],[19.77777379,59.27261381],[19.76763055,59.26797435],[19.75717853,59.26351814],[19.74643238,59.25925096],[19.73540331,59.25517664],[19.72410595,59.25130113],[19.71255486,59.24762896],[19.70076297,59.24416437],[19.68874465,59.24091188],[19.68376942,59.23964871],[19.59315,59.20724644],[19.45547502,59.15777883],[19.33270729,59.08231292],[19.2552356,59.03445918],[19.1079651,58.94299337],[19.10342549,58.94006343],[19.09472114,58.93474788],[19.0856647,58.92959296],[19.07627048,58.92460283],[19.07030914,58.92161781],[18.94118798,58.85712809],[18.88299178,58.82794081],[18.87660967,58.82480823],[18.87061987,58.82199615],[18.8629795,58.81764644],[18.85361504,58.81265664],[18.84392232,58.8078386],[18.83391426,58.80319923],[18.82360343,58.7987416],[18.81300081,58.79447347],[18.80212244,58.79039871],[18.79097751,58.78652237],[18.77958027,58.78285035],[18.77076254,58.7802067],[18.59294211,58.7096547],[18.47987368,58.66451562],[18.3650082,58.61843736],[18.27230277,58.58108416],[18.26669941,58.57859516],[18.25630744,58.57423119],[18.24563298,58.57005877],[18.23734094,58.56702894],[18.2180692,58.55931567],[18.21050218,58.55592355],[18.20011749,58.55155964],[18.18945018,58.54738706],[18.17851281,58.54341082],[18.16731936,58.53963598],[18.15588388,58.53606564],[18.1442187,58.53270579],[18.13233791,58.52956045],[18.12025857,58.52663191],[18.10799133,58.52392427],[18.09555339,58.52144163],[18.08295875,58.51918621],[18.07788164,58.51835279],[17.95122194,58.48889007],[17.95036401,58.48978513],[17.79531084,58.67143456],[17.78669623,58.77788889],[17.72520532,58.79794496],[17.7178548,58.81529519],[17.66962636,58.82623703],[17.66304545,58.83917243],[17.66140847,58.84222179],[17.65213076,58.85998294],[17.66071102,58.86652438],[17.65132866,58.87526082],[17.65295314,58.88449661],[17.65464322,58.89339397],[17.63990983,58.8985874],[17.63197409,58.90320872],[17.63623556,58.90833716],[17.63238753,58.91451908],[17.62816143,58.92120496],[17.62802292,58.92142401],[17.62634036,58.92401513],[17.62589204,58.92473949],[17.62313996,58.93254607],[17.62531753,58.93498568],[17.59684249,58.94434868],[17.58974067,58.94444528],[17.58946611,58.94451186],[17.57847723,58.94777688],[17.57816925,58.94787088],[17.57267769,58.9506872],[17.57059246,58.95162796],[17.56959189,58.95245865],[17.56613801,58.95186732],[17.56521213,58.95108943],[17.56244977,58.95076716],[17.56149542,58.95251324],[17.56114165,58.95273341],[17.56049226,58.95226612],[17.56031362,58.95216977],[17.55925242,58.95180674],[17.55845047,58.95244603],[17.55821448,58.95293417],[17.55730782,58.95356591],[17.55694736,58.95434307],[17.55749002,58.95510812],[17.5571238,58.95646012],[17.55668813,58.956439],[17.55613827,58.95622178],[17.55599533,58.95614286],[17.55562993,58.95648003],[17.55563018,58.95683027],[17.55596195,58.95720298],[17.5562471,58.95734297],[17.55750365,58.9574429],[17.55739707,58.95774073],[17.55757213,58.9577653],[17.55711426,58.95833723],[17.55778205,58.95848096],[17.5562509,58.96017175],[17.55604691,58.96026426],[17.55565411,58.96040425],[17.54958275,58.96273917],[17.55107421,58.96474003],[17.54973404,58.96609594],[17.5494335,58.96634242],[17.54832357,58.96709362],[17.54706421,58.96659839],[17.54633962,58.96705704],[17.54600495,58.96697164],[17.54598331,58.9672324],[17.54400292,58.96726758],[17.54299606,58.96769664],[17.5429296,58.96774277],[17.54291712,58.96781488],[17.5429908,58.9678764],[17.54313765,58.96799047],[17.54314802,58.96814298],[17.54316787,58.96817861],[17.54320371,58.96819587],[17.5435706,58.96844971],[17.54386446,58.96867039],[17.54391677,58.96901997],[17.54416624,58.96914235],[17.5446744,58.96956669],[17.54391534,58.9700437],[17.54406473,58.97053654],[17.5439386,58.97087875],[17.5438591,58.97107695],[17.54285254,58.97139668],[17.54449508,58.97273035],[17.54464054,58.97289924],[17.54480472,58.97310397],[17.54501724,58.97320947],[17.5453723,58.97340317],[17.54583084,58.97357794],[17.545973,58.97365725],[17.55448291,58.98267361],[17.5474012,58.9822187],[17.54533946,58.98220546],[17.54534797,58.98242968],[17.54536878,58.98251919],[17.54552856,58.98260732],[17.54577773,58.98275728],[17.54602751,58.9829252],[17.54622251,58.98302189],[17.54633108,58.98313743],[17.54642318,58.98327108],[17.54653189,58.98338662],[17.54637739,58.98344203],[17.54622107,58.98344358],[17.5460806,58.98340915],[17.54569344,58.9832875],[17.54518181,58.98309536],[17.54481065,58.98293764],[17.54452753,58.98280594],[17.54455339,58.98303001],[17.54368853,58.98280231],[17.54141121,58.98186225],[17.53726848,58.98159481],[17.53147446,58.98214745],[17.52649963,58.98262176],[17.52543853,58.98271883],[17.52462811,58.98279572],[17.52245616,58.98300847],[17.51820854,58.98303576]]]}}],"bbox":[17.24367093,58.48889007,20.0083834,60.30071205],"metadata":{"url":"https://geodata.scb.se/geoserver/stat/wfs?service=WFS&version=2.0.0&request=GetFeature&outputFormat=application%2Fjson&srsName=EPSG%3A4326&count=10000&typeNames=stat%3ARegSO_2025&CQL_FILTER=kommunkod+LIKE+%2701%25%27","fetchedAt":"2026-09-27T17:40:54.026254+00:00","source":"SCB RegSO 2025","rawSha256":"59fd2d12d15e518e6e0f4b778911d8262e5b2b519f0470685a5e42f58c599174","municipalities":["0114","0115","0117","0120","0123","0125","0126","0127","0128","0136","0138","0139","0140","0160","0162","0163","0180","0181","0182","0183","0184","0186","0187","0188","0191","0192"],"note":"County extent derived from all 26 municipalities; not an access or property map."}}
