{"type":"FeatureCollection","features":[{"type":"Feature","properties":{},"geometry":{"type":"Polygon","coordinates":[[[17.52245616,58.98300847],[17.51629569,58.9829331],[17.51377809,58.98230121],[17.51190351,58.98126505],[17.50307288,58.98412354],[17.50032409,58.98562758],[17.49048312,58.98677766],[17.48059368,58.98907843],[17.4757813,58.98734149],[17.4432893,58.99501951],[17.44671579,58.99048637],[17.44346096,58.98453826],[17.44174868,58.9837669],[17.44220541,58.98360971],[17.4392358,58.98125045],[17.42987963,58.98045748],[17.42425192,58.98223522],[17.41969856,58.98158205],[17.41230856,58.98322512],[17.40562327,58.98263543],[17.40561079,58.98248116],[17.39964333,58.98259085],[17.39395847,58.98223604],[17.39435763,58.9836055],[17.38994581,58.98385393],[17.3889986,58.98410047],[17.38808001,58.98401223],[17.38566668,58.9850193],[17.38451375,58.98504378],[17.38304381,58.98484862],[17.38062118,58.98395651],[17.37517014,58.98236211],[17.37073373,58.99107745],[17.36531295,58.99576995],[17.36483539,59.00101147],[17.36046173,59.00731149],[17.3546692,59.00927145],[17.35195015,59.01737129],[17.34533982,59.02299463],[17.34334352,59.02513694],[17.34686275,59.02908662],[17.33992538,59.03097515],[17.33873635,59.03158694],[17.33558282,59.03211378],[17.33402089,59.03175291],[17.33372866,59.03183892],[17.33376156,59.03211867],[17.33442752,59.03262279],[17.3334673,59.03313312],[17.3331676,59.03345263],[17.33252241,59.03465063],[17.33133743,59.03592857],[17.33145302,59.0363492],[17.33215393,59.03701627],[17.33221877,59.03771231],[17.33285469,59.03881116],[17.33263686,59.03917285],[17.3322135,59.03945245],[17.33209117,59.04090125],[17.33153341,59.04170316],[17.3302256,59.04248326],[17.32889756,59.04279133],[17.32799238,59.04337456],[17.32589898,59.04403255],[17.32547436,59.04436964],[17.32560554,59.04490864],[17.3251997,59.04568553],[17.32090153,59.04718401],[17.31921317,59.0490996],[17.32035961,59.06209476],[17.32594818,59.07018485],[17.32065699,59.07591581],[17.31900343,59.07662957],[17.31773542,59.07760956],[17.31598354,59.07801749],[17.31207803,59.07926376],[17.31342735,59.08117696],[17.31273204,59.08204653],[17.31281437,59.08222408],[17.31403338,59.082087],[17.31597971,59.08558503],[17.31606343,59.08683538],[17.31628061,59.08685423],[17.31614415,59.08721496],[17.31625179,59.08742367],[17.3157179,59.08815393],[17.31651025,59.08846],[17.31709621,59.09103262],[17.31649733,59.0914979],[17.31608937,59.09230739],[17.31744746,59.09336224],[17.31837043,59.09781042],[17.3186857,59.1152112],[17.32190141,59.12401107],[17.3224564,59.12898111],[17.32186374,59.13716904],[17.32068707,59.14011079],[17.31575165,59.14613681],[17.31276545,59.14824379],[17.30857862,59.15001016],[17.3075885,59.15141504],[17.30761574,59.15280444],[17.3070191,59.15349408],[17.30708119,59.15407133],[17.30669686,59.15429876],[17.30604999,59.15421711],[17.30614271,59.15373483],[17.3060097,59.15358207],[17.30450297,59.15550915],[17.3033219,59.15767627],[17.30170254,59.15996918],[17.29715288,59.16434134],[17.28412595,59.16853087],[17.27696734,59.16956903],[17.27947408,59.17103862],[17.27257436,59.17483896],[17.26865737,59.17536855],[17.26824159,59.17686897],[17.26743503,59.17729657],[17.26709483,59.17779939],[17.26573004,59.17836517],[17.2627915,59.1799795],[17.26193797,59.17980996],[17.2578679,59.1797869],[17.25720375,59.18020146],[17.25882337,59.18192792],[17.26106562,59.18243798],[17.2632626,59.18162729],[17.26367065,59.1822384],[17.26617056,59.18203872],[17.26895494,59.18260754],[17.26720152,59.18449749],[17.26681982,59.1851266],[17.26670174,59.1858305],[17.26689284,59.1879371],[17.26571892,59.18917858],[17.26532855,59.19024057],[17.26515909,59.19165629],[17.26478605,59.19260122],[17.26354327,59.19187585],[17.26257053,59.19666028],[17.24808905,59.19929716],[17.24442387,59.20415158],[17.24949009,59.20427561],[17.25151135,59.20809059],[17.247786,59.21206296],[17.24712331,59.21204504],[17.24545879,59.21268978],[17.24520018,59.21287217],[17.24461786,59.21402561],[17.24367093,59.21458176],[17.24611604,59.21611145],[17.24633787,59.21647704],[17.24646626,59.2166982],[17.24648758,59.21922926],[17.25220835,59.22008838],[17.2547631,59.22141284],[17.25617338,59.22240476],[17.257526,59.2229166],[17.25890945,59.22253222],[17.26029081,59.22254046],[17.26085474,59.22229004],[17.26156619,59.22260047],[17.26284359,59.22493167],[17.26454508,59.22743502],[17.2718564,59.23452567],[17.27262569,59.23646669],[17.27351195,59.2407492],[17.27489061,59.24417781],[17.27481587,59.24555396],[17.28136712,59.2454475],[17.29303563,59.24703503],[17.29102637,59.24945109],[17.29323099,59.24958551],[17.29378441,59.2501849],[17.3018132,59.24982537],[17.30893121,59.2521266],[17.30388938,59.25661075],[17.31036771,59.26633416],[17.34156173,59.27359985],[17.34779045,59.27906072],[17.34861001,59.28511088],[17.34832182,59.3057369],[17.34406428,59.31127824],[17.34982581,59.3176138],[17.35038165,59.31896005],[17.35058477,59.3199286],[17.34840292,59.32231764],[17.34619859,59.32615916],[17.34599454,59.33079331],[17.34815011,59.33363823],[17.33504691,59.3517418],[17.42561157,59.35134582],[17.41091653,59.36622082],[17.41301649,59.37576456],[17.41509533,59.38346526],[17.43300511,59.39582796],[17.42698006,59.41506837],[17.42945906,59.41949687],[17.42620793,59.42786733],[17.43571491,59.44174058],[17.45310873,59.44653109],[17.47973441,59.44370426],[17.4867503,59.44125277],[17.50434967,59.44053929],[17.50242718,59.45926381],[17.49658462,59.46645071],[17.46481763,59.50739749],[17.48814888,59.51305802],[17.50973313,59.51563513],[17.51639292,59.51796415],[17.52691817,59.53154877],[17.54115457,59.53744885],[17.54522153,59.54426815],[17.56436398,59.54163971],[17.56619361,59.54004601],[17.56856374,59.54039948],[17.5700152,59.54218614],[17.58107727,59.54974475],[17.58024642,59.55190814],[17.58020201,59.55717822],[17.57649499,59.55884655],[17.57844638,59.55927898],[17.5512756,59.57268345],[17.55056329,59.57363635],[17.55074928,59.57476001],[17.54703263,59.57597988],[17.54437555,59.57879847],[17.54349475,59.5799788],[17.53581622,59.58476613],[17.52796146,59.5890893],[17.52474111,59.5951991],[17.51979483,59.60135261],[17.52180393,59.60553532],[17.52032574,59.60859087],[17.51519227,59.60966941],[17.51356447,59.61155108],[17.51614219,59.62360123],[17.52708692,59.62778568],[17.52795721,59.62920766],[17.5300611,59.63034741],[17.53188682,59.63055575],[17.53961376,59.6352579],[17.54282017,59.63544543],[17.54393454,59.6350205],[17.54528632,59.63473646],[17.56044554,59.63772024],[17.57161499,59.63783686],[17.57483302,59.638695],[17.57797189,59.64019721],[17.58120524,59.64265125],[17.58659121,59.64578017],[17.58823633,59.64696005],[17.5904532,59.64975623],[17.58423484,59.65112051],[17.57886263,59.65328551],[17.57448305,59.65585799],[17.57357637,59.65814096],[17.5757482,59.66213264],[17.57943015,59.66403602],[17.59365004,59.66413503],[17.59929595,59.66526729],[17.60982841,59.67141964],[17.61706153,59.67399476],[17.62677519,59.67485313],[17.63142139,59.68176061],[17.63169404,59.6844604],[17.63026871,59.6871541],[17.62953625,59.69421187],[17.63674166,59.69357358],[17.64642318,59.69341628],[17.65566532,59.69279711],[17.65944388,59.69395998],[17.67307787,59.69114584],[17.67835554,59.69247929],[17.69835932,59.68829571],[17.69946008,59.68721957],[17.69947485,59.68666952],[17.70024825,59.68581623],[17.70326001,59.68636188],[17.70448881,59.68447783],[17.70862808,59.68418968],[17.71069545,59.68421632],[17.71174568,59.68451664],[17.7207828,59.68393372],[17.72229693,59.68405087],[17.72504926,59.67435062],[17.72574487,59.66960705],[17.72836231,59.66351998],[17.73267251,59.66489901],[17.73535195,59.66545667],[17.73910476,59.66581696],[17.7392821,59.66619907],[17.73997119,59.66621611],[17.74134044,59.66597756],[17.74203049,59.6654741],[17.7434046,59.66488177],[17.74504824,59.66474586],[17.74662891,59.66386396],[17.74739971,59.66326787],[17.7477277,59.66276505],[17.74923485,59.66213878],[17.75173516,59.66066612],[17.75268928,59.66050775],[17.75365089,59.66104576],[17.75644447,59.66214559],[17.75973747,59.66474373],[17.7594317,59.66655305],[17.75955191,59.66732216],[17.7626123,59.67068257],[17.7642959,59.67297558],[17.76420271,59.67437782],[17.76376028,59.67493546],[17.76395756,59.67541145],[17.76721414,59.67838289],[17.76896721,59.67903848],[17.77243009,59.68628371],[17.77317046,59.6861837],[17.77521903,59.68735075],[17.77759768,59.69021315],[17.777917,59.69014405],[17.77834475,59.69062816],[17.78170985,59.68993683],[17.78183788,59.68942397],[17.78181896,59.68775658],[17.78373413,59.68676491],[17.78559729,59.68612574],[17.78815749,59.68793677],[17.79707678,59.68626071],[17.79776902,59.68606242],[17.79990404,59.68301254],[17.80235523,59.68316555],[17.80413572,59.6829985],[17.80557641,59.68324131],[17.81265301,59.68087566],[17.81601219,59.67797827],[17.82525248,59.67981387],[17.82779337,59.68201004],[17.83293213,59.68068209],[17.83254349,59.68207049],[17.83295491,59.68267049],[17.83427332,59.68345589],[17.83656875,59.68830035],[17.83612319,59.68909305],[17.83271885,59.68919213],[17.83256964,59.68989084],[17.8337424,59.69028143],[17.83458717,59.69103223],[17.83653602,59.69176905],[17.83657294,59.6921742],[17.84179355,59.69366796],[17.8475914,59.69632957],[17.84894924,59.69709574],[17.85064558,59.6977701],[17.85514689,59.69806945],[17.86519944,59.69910428],[17.86766074,59.69955429],[17.89398576,59.70813137],[17.89475606,59.71058187],[17.90183514,59.70959598],[17.90411937,59.71203612],[17.90983456,59.70967845],[17.91858316,59.71049516],[17.92954689,59.71200499],[17.93822665,59.71368716],[17.94277276,59.71332611],[17.94655971,59.71106187],[17.94669735,59.71347314],[17.95408285,59.71863343],[17.96035388,59.71941987],[17.96280148,59.71988641],[17.96345336,59.72039167],[17.9686437,59.72276368],[17.97552456,59.72199822],[17.97901874,59.72484048],[17.98305063,59.72861383],[17.98392681,59.72921991],[17.98396298,59.72882245],[17.9834911,59.72848847],[17.98493205,59.72809078],[17.98525796,59.72758765],[17.9880161,59.72711199],[17.98854445,59.72784805],[17.98823665,59.72927171],[17.98418146,59.7292947],[17.99079286,59.73123638],[17.99162621,59.73009199],[17.99903067,59.72864238],[17.99958122,59.72926954],[18.00153107,59.73050175],[18.00233587,59.73069213],[18.00326341,59.73189542],[18.00119967,59.73217009],[18.00212371,59.73418335],[17.99898658,59.73441551],[18.00045371,59.73531218],[18.00092388,59.73694467],[18.00399757,59.73683206],[18.00381038,59.73645057],[18.00529969,59.73620105],[18.00595373,59.73752162],[18.00599801,59.73829861],[18.01034327,59.73803851],[18.01109735,59.73993945],[18.01210585,59.74106051],[18.01781898,59.74030808],[18.017787,59.74099824],[18.01249698,59.7415178],[18.01286017,59.74261664],[18.01757795,59.74250479],[18.01779157,59.74158909],[18.01964547,59.7419963],[18.02140102,59.74173517],[18.02034641,59.74532741],[18.02485713,59.74439597],[18.02777056,59.74038467],[18.03372987,59.73892673],[18.04035248,59.7376392],[18.0434949,59.73390647],[18.04611996,59.73685793],[18.05175431,59.73861364],[18.05214394,59.74072527],[18.05131097,59.74248646],[18.05063321,59.74297756],[18.05088619,59.74361054],[18.05266136,59.74330523],[18.05763329,59.74315306],[18.06256031,59.74187757],[18.06532721,59.74198585],[18.0668716,59.74225893],[18.07076559,59.74194897],[18.07086795,59.74079813],[18.0722806,59.74045045],[18.07469556,59.74025044],[18.07603475,59.73992016],[18.07714756,59.74001924],[18.07889243,59.73974474],[18.07994243,59.73986466],[18.08141351,59.73969538],[18.08244955,59.73945652],[18.08373977,59.73888285],[18.08516741,59.73855669],[18.08574629,59.74008882],[18.08675435,59.74088637],[18.08730491,59.74190364],[18.08800518,59.7426706],[18.08822761,59.74367573],[18.09021312,59.74548668],[18.09079349,59.74724228],[18.09119445,59.74771862],[18.09095415,59.75007176],[18.09363117,59.7516407],[18.10776854,59.75776765],[18.10887963,59.75910714],[18.108365,59.7609063],[18.10479005,59.76229969],[18.10435931,59.76698932],[18.10810835,59.77015827],[18.11008031,59.7730208],[18.11072996,59.77649122],[18.11374817,59.77853705],[18.11693775,59.7824323],[18.11683089,59.7884225],[18.11555175,59.78949313],[18.11507126,59.7912286],[18.11811254,59.79380451],[18.11960927,59.79585415],[18.1179373,59.79720454],[18.11962576,59.80480346],[18.12520914,59.8113026],[18.13068754,59.81907953],[18.15296611,59.82251092],[18.17491373,59.82727191],[18.19770085,59.83154297],[18.20560021,59.82943244],[18.21967632,59.82818111],[18.2375191,59.83331566],[18.241612,59.83287207],[18.24871327,59.83332677],[18.24789855,59.83485634],[18.25406393,59.83566127],[18.2574237,59.83511161],[18.25957671,59.8359173],[18.26445827,59.84592946],[18.26684028,59.84722309],[18.26907341,59.84741964],[18.27018529,59.84815402],[18.27015625,59.84893067],[18.2734129,59.85058574],[18.29802009,59.85392438],[18.31407561,59.85660199],[18.31214031,59.85857021],[18.31712797,59.85938188],[18.31732174,59.85858828],[18.31910458,59.85974688],[18.32744117,59.86102731],[18.33730539,59.86342165],[18.34468877,59.86316221],[18.35388594,59.86245683],[18.36473911,59.86451349],[18.36313566,59.87272796],[18.38143433,59.87862485],[18.38308959,59.87962201],[18.38446942,59.87997758],[18.38585019,59.88058821],[18.38625433,59.88106779],[18.38645634,59.88100715],[18.38645193,59.88154163],[18.39028015,59.88371854],[18.39267147,59.88984195],[18.4032131,59.89287508],[18.40450474,59.89438943],[18.40458696,59.89573494],[18.40388559,59.89923018],[18.39804546,59.9071226],[18.39760243,59.91022061],[18.39437148,59.91289891],[18.39377831,59.91923111],[18.39139733,59.9203758],[18.38729927,59.92280359],[18.3846143,59.92542669],[18.38150242,59.92787621],[18.37804339,59.93096676],[18.37715491,59.93639761],[18.38075764,59.93909031],[18.38217895,59.94074129],[18.38389086,59.94567548],[18.38877807,59.95002911],[18.39028361,59.95361517],[18.39490209,59.95548593],[18.40070932,59.95633929],[18.40335223,59.95687535],[18.42337414,59.95632592],[18.42929047,59.96499466],[18.42803093,59.97414969],[18.42721721,59.9818564],[18.4285918,59.98204639],[18.42862752,59.98225572],[18.42959774,59.98275058],[18.43839855,59.98702283],[18.43877016,59.98696642],[18.43982934,59.98727972],[18.43990125,59.9877184],[18.44500763,59.99026445],[18.44605895,59.98985825],[18.44752944,59.99057551],[18.44893427,59.99155794],[18.44865301,59.99158308],[18.4483878,59.99191143],[18.4505074,59.99310114],[18.451245,59.99421493],[18.45877064,59.99498316],[18.45964737,59.99365527],[18.46216265,59.99368777],[18.47116922,59.99948246],[18.47278678,60.00227991],[18.47282117,60.00332808],[18.47335831,60.00429769],[18.47113107,60.00457834],[18.4679157,60.00718229],[18.46640415,60.00748448],[18.46472756,60.00741799],[18.46258385,60.00803415],[18.46203777,60.0087632],[18.46002905,60.00950238],[18.45833533,60.00940023],[18.45485699,60.00983171],[18.45022111,60.01134334],[18.44892834,60.0119753],[18.44855454,60.0133153],[18.44846741,60.01576362],[18.44422853,60.01764635],[18.44113738,60.01827303],[18.43642291,60.01869346],[18.43170111,60.02070362],[18.41710351,60.02558061],[18.41573086,60.02682809],[18.41364523,60.02752665],[18.40754498,60.03041688],[18.40703325,60.03081457],[18.40623037,60.03189376],[18.40485643,60.03206685],[18.40371829,60.03256523],[18.40152005,60.03430241],[18.40088731,60.0345128],[18.39837174,60.03461584],[18.39811784,60.03471798],[18.39799246,60.03511917],[18.39679906,60.03567857],[18.39496008,60.03589174],[18.39531305,60.03657067],[18.39453233,60.0368612],[18.39342643,60.03762174],[18.39244271,60.03781819],[18.39262029,60.03848016],[18.39059234,60.03995605],[18.38971942,60.04035261],[18.38897027,60.04043365],[18.3889475,60.04073309],[18.38847539,60.04110462],[18.38848089,60.04126944],[18.39321482,60.04213204],[18.41246845,60.04733514],[18.43124075,60.05642777],[18.44479097,60.05860927],[18.45081403,60.07720369],[18.45340291,60.07749171],[18.46294085,60.08084469],[18.46980206,60.08663988],[18.47571471,60.09223065],[18.48164829,60.09610034],[18.48651017,60.10041291],[18.49198006,60.10388241],[18.49452455,60.11763753],[18.49289141,60.11771662],[18.4922511,60.1194409],[18.49501859,60.12002339],[18.49585511,60.12423426],[18.49682526,60.12730796],[18.49605872,60.12953313],[18.49621775,60.13238458],[18.49329082,60.13771394],[18.4934166,60.13825219],[18.49447754,60.13921484],[18.49954964,60.13966207],[18.49962193,60.13984571],[18.50052418,60.14009528],[18.50109447,60.14047196],[18.50138984,60.1408792],[18.50130547,60.14148994],[18.50170276,60.142091],[18.50176998,60.14270582],[18.50273719,60.14340689],[18.50397512,60.14375394],[18.50625397,60.14371694],[18.50634637,60.14392152],[18.50589543,60.14448196],[18.50609786,60.14484051],[18.50733555,60.14521917],[18.50952714,60.14532883],[18.51041068,60.14586745],[18.51215017,60.14569001],[18.51276967,60.14577789],[18.51212597,60.14653262],[18.51161,60.15487241],[18.51103582,60.15586089],[18.51421405,60.16067064],[18.5931677,60.16335235],[18.59719297,60.16303975],[18.64034232,60.16103964],[18.6768,60.15509021],[18.67702436,60.16700322],[18.68753103,60.16570712],[18.69309274,60.16567499],[18.6929866,60.17609698],[18.68169109,60.18167358],[18.67358099,60.18842118],[18.67273196,60.19462431],[18.6905143,60.19971669],[18.69599863,60.20071396],[18.69664757,60.20687479],[18.69317555,60.21438927],[18.69194893,60.21604248],[18.68285927,60.22556785],[18.67859536,60.23126538],[18.68360868,60.23932951],[18.71819193,60.24725947],[18.9058534,60.27803623],[19.13213735,60.30071205],[19.08320003,60.19168333],[19.18114146,60.12441885],[19.27868266,60.05708023],[19.37582697,59.98967001],[19.49187925,59.9086831],[19.57076984,59.85334311],[19.65828339,59.79168331],[19.81324829,59.6841366],[19.92881968,59.60335642],[20.0083834,59.54745863],[19.95326812,59.47079706],[19.90110147,59.39789204],[19.9001821,59.39390275],[19.89820505,59.38701333],[19.89575845,59.38016235],[19.89284382,59.37335943],[19.88946982,59.3666124],[19.88563599,59.35993034],[19.88135068,59.35331911],[19.8766174,59.34678932],[19.87144248,59.340347],[19.86583246,59.33399994],[19.8597943,59.32775774],[19.85333614,59.3216264],[19.84646592,59.3156126],[19.83919229,59.30972602],[19.83152319,59.3039717],[19.82346865,59.29835712],[19.81503844,59.29288921],[19.80624229,59.28757474],[19.79709191,59.28242023],[19.78759848,59.27743075],[19.77777379,59.27261381],[19.76763055,59.26797435],[19.75717853,59.26351814],[19.74643238,59.25925096],[19.73540331,59.25517664],[19.72410595,59.25130113],[19.71255486,59.24762896],[19.70076297,59.24416437],[19.68376942,59.23964871],[19.45547502,59.15777883],[19.33270729,59.08231292],[19.2552356,59.03445918],[19.09472114,58.93474788],[19.0856647,58.92959296],[19.07627048,58.92460283],[18.88299178,58.82794081],[18.87061987,58.82199615],[18.8629795,58.81764644],[18.85361504,58.81265664],[18.84392232,58.8078386],[18.83391426,58.80319923],[18.82360343,58.7987416],[18.81300081,58.79447347],[18.80212244,58.79039871],[18.79097751,58.78652237],[18.77958027,58.78285035],[18.77076254,58.7802067],[18.59294211,58.7096547],[18.47987368,58.66451562],[18.3650082,58.61843736],[18.27230277,58.58108416],[18.25630744,58.57423119],[18.24563298,58.57005877],[18.23734094,58.56702894],[18.2180692,58.55931567],[18.21050218,58.55592355],[18.20011749,58.55155964],[18.18945018,58.54738706],[18.17851281,58.54341082],[18.16731936,58.53963598],[18.15588388,58.53606564],[18.1442187,58.53270579],[18.13233791,58.52956045],[18.12025857,58.52663191],[18.10799133,58.52392427],[18.09555339,58.52144163],[18.07788164,58.51835279],[17.95122194,58.48889007],[17.79531084,58.67143456],[17.78669623,58.77788889],[17.72520532,58.79794496],[17.7178548,58.81529519],[17.66962636,58.82623703],[17.66304545,58.83917243],[17.65213076,58.85998294],[17.66071102,58.86652438],[17.65132866,58.87526082],[17.65464322,58.89339397],[17.63990983,58.8985874],[17.63197409,58.90320872],[17.63623556,58.90833716],[17.62589204,58.92473949],[17.62313996,58.93254607],[17.62531753,58.93498568],[17.59684249,58.94434868],[17.58974067,58.94444528],[17.57816925,58.94787088],[17.57059246,58.95162796],[17.56959189,58.95245865],[17.56613801,58.95186732],[17.56521213,58.95108943],[17.56244977,58.95076716],[17.56149542,58.95251324],[17.56114165,58.95273341],[17.56031362,58.95216977],[17.55925242,58.95180674],[17.55845047,58.95244603],[17.55821448,58.95293417],[17.55730782,58.95356591],[17.55694736,58.95434307],[17.55749002,58.95510812],[17.5571238,58.95646012],[17.55599533,58.95614286],[17.55562993,58.95648003],[17.55563018,58.95683027],[17.55596195,58.95720298],[17.55750365,58.9574429],[17.55739707,58.95774073],[17.55757213,58.9577653],[17.55711426,58.95833723],[17.55778205,58.95848096],[17.5562509,58.96017175],[17.54958275,58.96273917],[17.55107421,58.96474003],[17.54973404,58.96609594],[17.54832357,58.96709362],[17.54706421,58.96659839],[17.54633962,58.96705704],[17.54600495,58.96697164],[17.54598331,58.9672324],[17.54400292,58.96726758],[17.54291712,58.96781488],[17.54316787,58.96817861],[17.54386446,58.96867039],[17.54391677,58.96901997],[17.5446744,58.96956669],[17.54391534,58.9700437],[17.54406473,58.97053654],[17.5438591,58.97107695],[17.54285254,58.97139668],[17.54480472,58.97310397],[17.545973,58.97365725],[17.55448291,58.98267361],[17.54533946,58.98220546],[17.54536878,58.98251919],[17.54622251,58.98302189],[17.54653189,58.98338662],[17.54622107,58.98344358],[17.54452753,58.98280594],[17.54455339,58.98303001],[17.54368853,58.98280231],[17.54141121,58.98186225],[17.53726848,58.98159481],[17.52245616,58.98300847]]]}}]}
